{"spkid": "20497113", "covariance": {"epoch": "2459560.5", "elements": [{"label": "e", "name": "e", "sigma": 1.74673294059475e-08, "title": "eccentricity", "value": ".2507511825620843", "units": null}, {"label": "q", "units": "au", "title": "perihelion distance", "value": ".9364835729402211", "sigma": 2.2084537348989e-08, "name": "q"}, {"value": "2459657.235281058212", "title": "time of perihelion passage", "units": "TDB", "name": "tp", "sigma": 1.43356847806292e-05, "label": "tp"}, {"label": "node", "name": "om", "sigma": 1.13730929895987e-05, "title": "longitude of the ascending node", "value": "166.8802683775916", "units": "deg"}, {"label": "peri", "units": "deg", "title": "argument of perihelion", "value": "300.4487640917918", "name": "w", "sigma": 1.60479465986983e-05}, {"title": "inclination", "value": "11.6439950708122", "units": "deg", "sigma": 5.43949871800583e-06, "name": "i", "label": "i"}], "data": [["3.051075965758774E-16", "-3.852478300157588E-16", "-1.241163471237396E-13", "2.386233665592263E-14", "-1.091717873767073E-13", "7.889126522959351E-15", "-2.715296611255675E-24"], ["-3.852478300157588E-16", "4.877267899188893E-16", "1.599934139394311E-13", "-3.001532133004407E-14", "1.409730030728005E-13", "-1.047428827131222E-14", "8.536610428200035E-24"], ["-1.241163471237396E-13", "1.599934139394311E-13", "2.055118581295638E-10", "-6.973401153782471E-12", "1.634451370693455E-10", "1.140462643425427E-12", "1.907198909876072E-20"], ["2.386233665592263E-14", "-3.001532133004407E-14", "-6.973401153782471E-12", "1.293472441500582E-10", "-1.317841368866862E-10", "4.498846541564413E-11", "-1.192533416982018E-20"], ["-1.091717873767073E-13", "1.409730030728005E-13", "1.634451370693455E-10", "-1.317841368866862E-10", "2.575365900346714E-10", "-4.336672651789494E-11", "3.067105998205401E-20"], ["7.889126522959351E-15", "-1.047428827131222E-14", "1.140462643425427E-12", "4.498846541564413E-11", "-4.336672651789494E-11", "2.958814630318705E-11", "-7.078901172039169E-21"], ["-2.715296611255675E-24", "8.536610428200035E-24", "1.907198909876072E-20", "-1.192533416982018E-20", "3.067105998205401E-20", "-7.078901172039169E-21", "2.368831778691626E-29"]], "labels": ["e", "q", "tp", "node", "peri", "i", "A2"]}, "elements": [{"sigma": "1.7567E-8", "name": "e", "units": null, "value": ".250721453031672", "title": "eccentricity", "label": "e"}, {"label": "a", "name": "a", "sigma": "2.3834E-9", "value": "1.249529400001627", "title": "semi-major axis", "units": "au"}, {"label": "q", "sigma": "2.2172E-8", "name": "q", "units": "au", "value": ".9362455732274257", "title": "perihelion distance"}, {"name": "i", "sigma": "5.439E-6", "units": "deg", "value": "11.64307303182196", "title": "inclination; angle with respect to x-y ecliptic plane", "label": "i"}, {"label": "node", "name": "om", "sigma": "1.1401E-5", "value": "166.83053937952", "title": "longitude of the ascending node", "units": "deg"}, {"label": "peri", "units": "deg", "value": "300.4785779063965", "title": "argument of perihelion", "name": "w", "sigma": "1.6039E-5"}, {"units": "deg", "value": "8.742931348804957", "title": "mean anomaly", "sigma": "1.1119E-5", "name": "ma", "label": "M"}, {"sigma": "1.574E-5", "name": "tp", "units": "TDB", "value": "2461188.109959873298", "title": "time of perihelion passage", "label": "tp"}, {"name": "per", "sigma": "1.4597E-6", "units": "d", "title": "sidereal orbital period", "value": "510.1737927088454", "label": "period"}, {"label": "n", "name": "n", "sigma": "2.019E-9", "title": "mean motion", "value": ".7056418913416255", "units": "deg/d"}, {"label": "Q", "sigma": "2.981E-9", "name": "ad", "title": "aphelion distance", "value": "1.562813226775828", "units": "au"}], "epoch": "2461200.5"}